[
    {
        "Altitude(m)": 558185.675619614,
        "Argument of Periapsis(deg)": 0.033114955553567506,
        "Eccentricity": 0.0,
        "Inclination(deg)": 53.0,
        "Latitude(deg)": -17.76242161817755,
        "Longitude(deg)": -72.87852659152053,
        "Mean Anomaly(deg)": -22.269235662112,
        "RAAN(deg)": 44.950716842640084,
        "Satellite Name": "Starlink Shell 1 215",
        "Satellite Number": 215,
        "Semi-Major Axis(m)": 6931778.249405717,
        "Time(s)": 950
    },
    {
        "Altitude(m)": 558036.3921036593,
        "Argument of Periapsis(deg)": 0.03346353403307874,
        "Eccentricity": 0.0,
        "Inclination(deg)": 53.0,
        "Latitude(deg)": -17.273667762000006,
        "Longitude(deg)": -72.50627392698435,
        "Mean Anomaly(deg)": -21.642404458555337,
        "RAAN(deg)": 44.95019807256261,
        "Satellite Name": "Starlink Shell 1 215",
        "Satellite Number": 215,
        "Semi-Major Axis(m)": 6931778.249405717,
        "Time(s)": 960
    },
    {
        "Altitude(m)": 557888.8659980135,
        "Argument of Periapsis(deg)": 0.03381211251258998,
        "Eccentricity": 0.0,
        "Inclination(deg)": 53.0,
        "Latitude(deg)": -16.784029010983435,
        "Longitude(deg)": -72.13618408956368,
        "Mean Anomaly(deg)": -21.015573254998632,
        "RAAN(deg)": 44.94967930248514,
        "Satellite Name": "Starlink Shell 1 215",
        "Satellite Number": 215,
        "Semi-Major Axis(m)": 6931778.249405717,
        "Time(s)": 970
    },
    {
        "Altitude(m)": 557743.1464922435,
        "Argument of Periapsis(deg)": 0.034160690992101214,
        "Eccentricity": 0.0,
        "Inclination(deg)": 53.0,
        "Latitude(deg)": -16.293535550807018,
        "Longitude(deg)": -71.76818478988332,
        "Mean Anomaly(deg)": -20.388742051441923,
        "RAAN(deg)": 44.94916053240767,
        "Satellite Name": "Starlink Shell 1 215",
        "Satellite Number": 215,
        "Semi-Major Axis(m)": 6931778.249405717,
        "Time(s)": 980
    },
    {
        "Altitude(m)": 557599.2818225169,
        "Argument of Periapsis(deg)": 0.034509269471612446,
        "Eccentricity": 0.0,
        "Inclination(deg)": 53.0,
        "Latitude(deg)": -15.80221710704683,
        "Longitude(deg)": -71.40220410266983,
        "Mean Anomaly(deg)": -19.761910847885208,
        "RAAN(deg)": 44.94864176233019,
        "Satellite Name": "Starlink Shell 1 215",
        "Satellite Number": 215,
        "Semi-Major Axis(m)": 6931778.249405717,
        "Time(s)": 990
    }
]